[{"OBJECT_NAME":"EDISON-1","OBJECT_ID":"2025-009B","EPOCH":"2026-03-09T19:16:13.822464","MEAN_MOTION":15.29042904,"ECCENTRICITY":0.00043285,"INCLINATION":97.4042,"RA_OF_ASC_NODE":151.6286,"ARG_OF_PERICENTER":306.4185,"MEAN_ANOMALY":53.6655,"EPHEMERIS_TYPE":0,"CLASSIFICATION_TYPE":"U","NORAD_CAT_ID":62610,"ELEMENT_SET_NO":999,"REV_AT_EPOCH":6375,"BSTAR":0.00052814963,"MEAN_MOTION_DOT":0.00014835,"MEAN_MOTION_DDOT":0},{"OBJECT_NAME":"STARLINK-33714","OBJECT_ID":"2025-076N","EPOCH":"2026-03-09T02:37:15.902112","MEAN_MOTION":15.27592859,"ECCENTRICITY":0.00018731,"INCLINATION":43.003,"RA_OF_ASC_NODE":324.8001,"ARG_OF_PERICENTER":263.2654,"MEAN_ANOMALY":96.7985,"EPHEMERIS_TYPE":0,"CLASSIFICATION_TYPE":"U","NORAD_CAT_ID":63581,"ELEMENT_SET_NO":999,"REV_AT_EPOCH":5174,"BSTAR":0.0013362317,"MEAN_MOTION_DOT":0.00036706,"MEAN_MOTION_DDOT":0}]
